{"type": "FeatureCollection", "features": [ {"type": "Feature", "properties": {"norad_id": 33867, "name": "IRIDIUM 33 DEB", "group": "iridium-33-debris", "lat": -58.176849574290614, "lon": -20.288100032444778, "alt_km": 324.71126314103003, "timestamp": "2025-12-21T07:34:34.899903+00:00", "meta": {"OBJECT_NAME": "IRIDIUM 33 DEB", "OBJECT_ID": "1997-051AL", "EPOCH": "2025-12-20T00:00:24.546240", "MEAN_MOTION": 15.83320916, "ECCENTRICITY": 0.00135723, "INCLINATION": 86.3644, "RA_OF_ASC_NODE": 346.2932, "ARG_OF_PERICENTER": 95.1198, "MEAN_ANOMALY": 265.1629, "EPHEMERIS_TYPE": 0, "CLASSIFICATION_TYPE": "U", "NORAD_CAT_ID": 33867, "ELEMENT_SET_NO": 999, "REV_AT_EPOCH": 89625, "BSTAR": 0.0064207293, "MEAN_MOTION_DOT": 0.01574163, "MEAN_MOTION_DDOT": 0}, "tle": {"line1": "1 33867U 97051AL  25354.00028410  .01574163  00000+0  64207-2 0  9990", "line2": "2 33867  86.3644 346.2932 0013572  95.1198 265.1629 15.83320916896259"}}, "geometry": {"type": "Point", "coordinates": [-20.288100032444778, -58.176849574290614]}}, {"type": "Feature", "properties": {"norad_id": 33870, "name": "IRIDIUM 33 DEB", "group": "iridium-33-debris", "lat": -62.917154639135745, "lon": 47.461049622256624, "alt_km": 759.5685300708355, "timestamp": "2025-12-21T07:34:34.899912+00:00", "meta": {"OBJECT_NAME": "IRIDIUM 33 DEB", "OBJECT_ID": "1997-051AP", "EPOCH": "2025-12-20T22:43:18.717888", "MEAN_MOTION": 14.45888373, "ECCENTRICITY": 0.00222826, "INCLINATION": 86.3739, "RA_OF_ASC_NODE": 54.7429, "ARG_OF_PERICENTER": 151.873, "MEAN_ANOMALY": 25.7353, "EPHEMERIS_TYPE": 0, "CLASSIFICATION_TYPE": "U", "NORAD_CAT_ID": 33870, "ELEMENT_SET_NO": 999, "REV_AT_EPOCH": 88255, "BSTAR": 0.0004761985, "MEAN_MOTION_DOT": 1.716e-05, "MEAN_MOTION_DDOT": 0}, "tle": {"line1": "1 33870U 97051AP  25354.94674442  .00001716  00000+0  47620-3 0  9998", "line2": "2 33870  86.3739  54.7429 0022282 151.8730  25.7353 14.45888373882555"}}, "geometry": {"type": "Point", "coordinates": [47.461049622256624, -62.917154639135745]}}, {"type": "Feature", "properties": {"norad_id": 33881, "name": "IRIDIUM 33 DEB", "group": "iridium-33-debris", "lat": 42.66586203302904, "lon": -80.32353287228258, "alt_km": 657.5676382661968, "timestamp": "2025-12-21T07:34:34.899922+00:00", "meta": {"OBJECT_NAME": "IRIDIUM 33 DEB", "OBJECT_ID": "1997-051BA", "EPOCH": "2025-12-20T18:27:12.976416", "MEAN_MOTION": 14.56702482, "ECCENTRICITY": 0.00613627, "INCLINATION": 86.3866, "RA_OF_ASC_NODE": 103.253, "ARG_OF_PERICENTER": 148.7613, "MEAN_ANOMALY": 2.955, "EPHEMERIS_TYPE": 0, "CLASSIFICATION_TYPE": "U", "NORAD_CAT_ID": 33881, "ELEMENT_SET_NO": 999, "REV_AT_EPOCH": 87617, "BSTAR": 0.0011797904, "MEAN_MOTION_DOT": 5.428e-05, "MEAN_MOTION_DDOT": 0}, "tle": {"line1": "1 33881U 97051BA  25354.76890019  .00005428  00000+0  11798-2 0  9990", "line2": "2 33881  86.3866 103.2530 0061362 148.7613   2.9550 14.56702482876173"}}, "geometry": {"type": "Point", "coordinates": [-80.32353287228258, 42.66586203302904]}}, {"type": "Feature", "properties": {"norad_id": 33884, "name": "IRIDIUM 33 DEB", "group": "iridium-33-debris", "lat": 7.01544963646539, "lon": 6.394733398626933, "alt_km": 637.6467179590682, "timestamp": "2025-12-21T07:34:34.899932+00:00", "meta": {"OBJECT_NAME": "IRIDIUM 33 DEB", "OBJECT_ID": "1997-051BD", "EPOCH": "2025-12-20T19:06:20.177568", "MEAN_MOTION": 14.77573333, "ECCENTRICITY": 0.00091017, "INCLINATION": 86.3692, "RA_OF_ASC_NODE": 6.1816, "ARG_OF_PERICENTER": 292.2796, "MEAN_ANOMALY": 192.6099, "EPHEMERIS_TYPE": 0, "CLASSIFICATION_TYPE": "U", "NORAD_CAT_ID": 33884, "ELEMENT_SET_NO": 999, "REV_AT_EPOCH": 88966, "BSTAR": 0.00096382416, "MEAN_MOTION_DOT": 6.912e-05, "MEAN_MOTION_DDOT": 0}, "tle": {"line1": "1 33884U 97051BD  25354.79606687  .00006912  00000+0  96382-3 0  9994", "line2": "2 33884  86.3692   6.1816 0009101 292.2796 192.6099 14.77573333889668"}}, "geometry": {"type": "Point", "coordinates": [6.394733398626933, 7.01544963646539]}}, {"type": "Feature", "properties": {"norad_id": 33886, "name": "IRIDIUM 33 DEB", "group": "iridium-33-debris", "lat": 84.0945237511694, "lon": -154.08769046329863, "alt_km": 768.2385267349937, "timestamp": "2025-12-21T07:34:34.899941+00:00", "meta": {"OBJECT_NAME": "IRIDIUM 33 DEB", "OBJECT_ID": "1997-051BF", "EPOCH": "2025-12-20T16:37:10.552800", "MEAN_MOTION": 14.36060348, "ECCENTRICITY": 0.00129968, "INCLINATION": 86.3824, "RA_OF_ASC_NODE": 63.8814, "ARG_OF_PERICENTER": 213.1254, "MEAN_ANOMALY": 261.885, "EPHEMERIS_TYPE": 0, "CLASSIFICATION_TYPE": "U", "NORAD_CAT_ID": 33886, "ELEMENT_SET_NO": 999, "REV_AT_EPOCH": 88166, "BSTAR": 0.00013250943, "MEAN_MOTION_DOT": 4.05e-06, "MEAN_MOTION_DDOT": 0}, "tle": {"line1": "1 33886U 97051BF  25354.69248325  .00000405  00000+0  13251-3 0  9991", "line2": "2 33886  86.3824  63.8814 0012996 213.1254 261.8850 14.36060348881660"}}, "geometry": {"type": "Point", "coordinates": [-154.08769046329863, 84.0945237511694]}}, {"type": "Feature", "properties": {"norad_id": 33887, "name": "IRIDIUM 33 DEB", "group": "iridium-33-debris", "lat": 66.70290283141848, "lon": 8.329566325768909, "alt_km": 763.4337228751392, "timestamp": "2025-12-21T07:34:34.899951+00:00", "meta": {"OBJECT_NAME": "IRIDIUM 33 DEB", "OBJECT_ID": "1997-051BG", "EPOCH": "2025-12-20T01:28:45.668352", "MEAN_MOTION": 14.37227129, "ECCENTRICITY": 0.00051987, "INCLINATION": 86.3041, "RA_OF_ASC_NODE": 0.2367, "ARG_OF_PERICENTER": 196.9799, "MEAN_ANOMALY": 225.7634, "EPHEMERIS_TYPE": 0, "CLASSIFICATION_TYPE": "U", "NORAD_CAT_ID": 33887, "ELEMENT_SET_NO": 999, "REV_AT_EPOCH": 88270, "BSTAR": 0.00010697181, "MEAN_MOTION_DOT": 3.38e-06, "MEAN_MOTION_DDOT": 0}, "tle": {"line1": "1 33887U 97051BG  25354.06163968  .00000338  00000+0  10697-3 0  9998", "line2": "2 33887  86.3041   0.2367 0005198 196.9799 225.7634 14.37227129882706"}}, "geometry": {"type": "Point", "coordinates": [8.329566325768909, 66.70290283141848]}}, {"type": "Feature", "properties": {"norad_id": 33953, "name": "IRIDIUM 33 DEB", "group": "iridium-33-debris", "lat": 57.804017771055534, "lon": -135.7067493944317, "alt_km": 693.7010595010033, "timestamp": "2025-12-21T07:34:34.899961+00:00", "meta": {"OBJECT_NAME": "IRIDIUM 33 DEB", "OBJECT_ID": "1997-051BN", "EPOCH": "2025-12-20T15:12:49.112064", "MEAN_MOTION": 14.55391351, "ECCENTRICITY": 0.0017918, "INCLINATION": 86.384, "RA_OF_ASC_NODE": 50.3533, "ARG_OF_PERICENTER": 78.7274, "MEAN_ANOMALY": 73.2547, "EPHEMERIS_TYPE": 0, "CLASSIFICATION_TYPE": "U", "NORAD_CAT_ID": 33953, "ELEMENT_SET_NO": 999, "REV_AT_EPOCH": 88418, "BSTAR": 0.0006589, "MEAN_MOTION_DOT": 2.887e-05, "MEAN_MOTION_DDOT": 0}, "tle": {"line1": "1 33953U 97051BN  25354.63390176  .00002887  00000+0  65890-3 0  9994", "line2": "2 33953  86.3840  50.3533 0017918  78.7274  73.2547 14.55391351884188"}}, "geometry": {"type": "Point", "coordinates": [-135.7067493944317, 57.804017771055534]}}, {"type": "Feature", "properties": {"norad_id": 33960, "name": "IRIDIUM 33 DEB", "group": "iridium-33-debris", "lat": 47.52639992327394, "lon": 101.36560062129874, "alt_km": 607.351676171571, "timestamp": "2025-12-21T07:34:34.899970+00:00", "meta": {"OBJECT_NAME": "IRIDIUM 33 DEB", "OBJECT_ID": "1997-051BV", "EPOCH": "2025-12-20T19:54:30.770784", "MEAN_MOTION": 14.855592, "ECCENTRICITY": 0.00073702, "INCLINATION": 86.2542, "RA_OF_ASC_NODE": 285.6986, "ARG_OF_PERICENTER": 47.5357, "MEAN_ANOMALY": 6.3643, "EPHEMERIS_TYPE": 0, "CLASSIFICATION_TYPE": "U", "NORAD_CAT_ID": 33960, "ELEMENT_SET_NO": 999, "REV_AT_EPOCH": 88987, "BSTAR": 0.0019147871, "MEAN_MOTION_DOT": 0.00016604, "MEAN_MOTION_DDOT": 0}, "tle": {"line1": "1 33960U 97051BV  25354.82952281  .00016604  00000+0  19148-2 0  9990", "line2": "2 33960  86.2542 285.6986 0007370  47.5357   6.3643 14.85559200889873"}}, "geometry": {"type": "Point", "coordinates": [101.36560062129874, 47.52639992327394]}}, {"type": "Feature", "properties": {"norad_id": 33966, "name": "IRIDIUM 33 DEB", "group": "iridium-33-debris", "lat": 69.98784102802492, "lon": 52.32474458437706, "alt_km": 720.2440024830212, "timestamp": "2025-12-21T07:34:34.899980+00:00", "meta": {"OBJECT_NAME": "IRIDIUM 33 DEB", "OBJECT_ID": "1997-051CB", "EPOCH": "2025-12-20T09:48:07.873344", "MEAN_MOTION": 14.49621404, "ECCENTRICITY": 0.00082754, "INCLINATION": 86.3914, "RA_OF_ASC_NODE": 42.7361, "ARG_OF_PERICENTER": 163.9635, "MEAN_ANOMALY": 214.8558, "EPHEMERIS_TYPE": 0, "CLASSIFICATION_TYPE": "U", "NORAD_CAT_ID": 33966, "ELEMENT_SET_NO": 999, "REV_AT_EPOCH": 88553, "BSTAR": 0.00035675491, "MEAN_MOTION_DOT": 1.39e-05, "MEAN_MOTION_DDOT": 0}, "tle": {"line1": "1 33966U 97051CB  25354.40842446  .00001390  00000+0  35675-3 0  9991", "line2": "2 33966  86.3914  42.7361 0008275 163.9635 214.8558 14.49621404885535"}}, "geometry": {"type": "Point", "coordinates": [52.32474458437706, 69.98784102802492]}}, {"type": "Feature", "properties": {"norad_id": 34071, "name": "IRIDIUM 33 DEB", "group": "iridium-33-debris", "lat": 46.813666014014416, "lon": -169.80426952706762, "alt_km": 718.6354109677013, "timestamp": "2025-12-21T07:34:34.899989+00:00", "meta": {"OBJECT_NAME": "IRIDIUM 33 DEB", "OBJECT_ID": "1997-051CE", "EPOCH": "2025-12-20T07:46:13.736640", "MEAN_MOTION": 14.49495052, "ECCENTRICITY": 0.00099424, "INCLINATION": 86.3449, "RA_OF_ASC_NODE": 14.5318, "ARG_OF_PERICENTER": 87.1409, "MEAN_ANOMALY": 273.0933, "EPHEMERIS_TYPE": 0, "CLASSIFICATION_TYPE": "U", "NORAD_CAT_ID": 34071, "ELEMENT_SET_NO": 999, "REV_AT_EPOCH": 88444, "BSTAR": 0.00041457819, "MEAN_MOTION_DOT": 1.609e-05, "MEAN_MOTION_DDOT": 0}, "tle": {"line1": "1 34071U 97051CE  25354.32377010  .00001609  00000+0  41458-3 0  9999", "line2": "2 34071  86.3449  14.5318 0009942  87.1409 273.0933 14.49495052884444"}}, "geometry": {"type": "Point", "coordinates": [-169.80426952706762, 46.813666014014416]}}]}